STARLINK-34192          
1 64014U 25101W   25329.08903201  .00049450  00000+0  17914-2 0  9993
2 64014  42.9993 229.0585 0001680 274.1229  85.9431 15.27636397 31054
STARLINK-34093          
1 64015U 25101X   25329.11200924  .00036658  00000+0  13342-2 0  9997
2 64015  43.0003 228.3720 0001634 269.7364  90.3300 15.27599323 31064
STARLINK-34016          
1 64016U 25101Y   25329.10687157  .00028185  00000+0  10292-2 0  9991
2 64016  42.9998 228.3312 0000997 297.1375  62.9375 15.27599020 31062
STARLINK-34161          
1 64017U 25101Z   25329.11586603  .00024039  00000+0  87981-3 0  9991
2 64017  43.0009 228.3992 0001396 275.9124  84.1569 15.27595635 31061
STARLINK-34162          
1 64018U 25101AA  25329.12870976  .00049425  00000+0  17906-2 0  9997
2 64018  43.0014 228.4978 0001692 284.5902  75.4762 15.27633547 31065
STARLINK-34155          
1 64019U 25101AB  25329.07103889  .00030828  00000+0  11242-2 0  9998
2 64019  42.9998 228.9223 0001952 268.9528  91.1100 15.27605490 31058
STARLINK-34141          
1 64020U 25101AC  25329.06718537  .00043877  00000+0  15933-2 0  9990
2 64020  42.9993 228.8950 0001843 282.3533  77.7112 15.27604206 31053
STARLINK-34062          
1 64021U 25101AD  25329.04533809  .00025658  00000+0  93823-3 0  9998
2 64021  43.0019 228.7282 0001305 263.8124  96.2578 15.27595278 31055
STARLINK-34051          
1 64022U 25102A   25328.55257419  .00007974  00000+0  67515-3 0  9995
2 64022  70.0012  19.5515 0003155 269.1651  90.9146 14.98338484 30202
STARLINK-34184          
1 64023U 25102B   25328.56909814  .00004978  00000+0  42458-3 0  9990
2 64023  70.0014  19.6067 0003245 271.6874  88.3913 14.98341735 30210
STARLINK-34087          
1 64024U 25102C   25328.86950310  .00005888  00000+0  50067-3 0  9997
2 64024  70.0020  18.6473 0002919 271.1719  88.9105 14.98342761 30149
STARLINK-34088          
1 64025U 25102D   25329.11169220  .00003110  00000+0  26831-3 0  9997
2 64025  70.0020  18.2846 0002881 265.4692  94.6138 14.98336118 30299
STARLINK-33992          
1 64026U 25102E   25328.85283289  .00002959  00000+0  25559-3 0  9996
2 64026  70.0016  18.9924 0002962 268.2711  91.8109 14.98339173 30338
STARLINK-33967          
1 64027U 25102F   25329.08647910  .00004956  00000+0  42271-3 0  9997
2 64027  70.0014  18.2004 0003132 269.6025  90.4775 14.98341430 30223
STARLINK-33953          
1 64028U 25102G   25329.12402084  .00005481  00000+0  46666-3 0  9990
2 64028  70.0019  17.9281 0002690 265.4879  94.5973 14.98342087 30393
STARLINK-33790          
1 64029U 25102H   25328.56508905  .00003881  00000+0  33277-3 0  9993
2 64029  70.0016  19.5870 0003106 266.9238  93.1565 14.98339553 30252
STARLINK-34030          
1 64030U 25102J   25329.11152606  .00001696  00000+0  14987-3 0  9999
2 64030  70.0018  18.2884 0002980 270.7326  89.3492 14.98336736 30297
