[{"OBJECT_NAME":"STARLINK-34192","OBJECT_ID":"2025-101W","EPOCH":"2025-11-25T02:08:12.365664","MEAN_MOTION":15.27636397,"ECCENTRICITY":0.000168,"INCLINATION":42.9993,"RA_OF_ASC_NODE":229.0585,"ARG_OF_PERICENTER":274.1229,"MEAN_ANOMALY":85.9431,"EPHEMERIS_TYPE":0,"CLASSIFICATION_TYPE":"U","NORAD_CAT_ID":64014,"ELEMENT_SET_NO":999,"REV_AT_EPOCH":3105,"BSTAR":0.0017914,"MEAN_MOTION_DOT":0.0004945,"MEAN_MOTION_DDOT":0},{"OBJECT_NAME":"STARLINK-34093","OBJECT_ID":"2025-101X","EPOCH":"2025-11-25T02:41:17.598336","MEAN_MOTION":15.27599323,"ECCENTRICITY":0.0001634,"INCLINATION":43.0003,"RA_OF_ASC_NODE":228.372,"ARG_OF_PERICENTER":269.7364,"MEAN_ANOMALY":90.33,"EPHEMERIS_TYPE":0,"CLASSIFICATION_TYPE":"U","NORAD_CAT_ID":64015,"ELEMENT_SET_NO":999,"REV_AT_EPOCH":3106,"BSTAR":0.0013342,"MEAN_MOTION_DOT":0.00036658,"MEAN_MOTION_DDOT":0},{"OBJECT_NAME":"STARLINK-34016","OBJECT_ID":"2025-101Y","EPOCH":"2025-11-25T02:33:53.703648","MEAN_MOTION":15.2759902,"ECCENTRICITY":9.97e-5,"INCLINATION":42.9998,"RA_OF_ASC_NODE":228.3312,"ARG_OF_PERICENTER":297.1375,"MEAN_ANOMALY":62.9375,"EPHEMERIS_TYPE":0,"CLASSIFICATION_TYPE":"U","NORAD_CAT_ID":64016,"ELEMENT_SET_NO":999,"REV_AT_EPOCH":3106,"BSTAR":0.0010292,"MEAN_MOTION_DOT":0.00028185,"MEAN_MOTION_DDOT":0},{"OBJECT_NAME":"STARLINK-34161","OBJECT_ID":"2025-101Z","EPOCH":"2025-11-25T02:46:50.824992","MEAN_MOTION":15.27595635,"ECCENTRICITY":0.0001396,"INCLINATION":43.0009,"RA_OF_ASC_NODE":228.3992,"ARG_OF_PERICENTER":275.9124,"MEAN_ANOMALY":84.1569,"EPHEMERIS_TYPE":0,"CLASSIFICATION_TYPE":"U","NORAD_CAT_ID":64017,"ELEMENT_SET_NO":999,"REV_AT_EPOCH":3106,"BSTAR":0.00087981,"MEAN_MOTION_DOT":0.00024039,"MEAN_MOTION_DDOT":0},{"OBJECT_NAME":"STARLINK-34162","OBJECT_ID":"2025-101AA","EPOCH":"2025-11-25T03:05:20.523264","MEAN_MOTION":15.27633547,"ECCENTRICITY":0.0001692,"INCLINATION":43.0014,"RA_OF_ASC_NODE":228.4978,"ARG_OF_PERICENTER":284.5902,"MEAN_ANOMALY":75.4762,"EPHEMERIS_TYPE":0,"CLASSIFICATION_TYPE":"U","NORAD_CAT_ID":64018,"ELEMENT_SET_NO":999,"REV_AT_EPOCH":3106,"BSTAR":0.0017906,"MEAN_MOTION_DOT":0.00049425,"MEAN_MOTION_DDOT":0},{"OBJECT_NAME":"STARLINK-34155","OBJECT_ID":"2025-101AB","EPOCH":"2025-11-25T01:42:17.760096","MEAN_MOTION":15.2760549,"ECCENTRICITY":0.0001952,"INCLINATION":42.9998,"RA_OF_ASC_NODE":228.9223,"ARG_OF_PERICENTER":268.9528,"MEAN_ANOMALY":91.11,"EPHEMERIS_TYPE":0,"CLASSIFICATION_TYPE":"U","NORAD_CAT_ID":64019,"ELEMENT_SET_NO":999,"REV_AT_EPOCH":3105,"BSTAR":0.0011242,"MEAN_MOTION_DOT":0.00030828,"MEAN_MOTION_DDOT":0},{"OBJECT_NAME":"STARLINK-34141","OBJECT_ID":"2025-101AC","EPOCH":"2025-11-25T01:36:44.815968","MEAN_MOTION":15.27604206,"ECCENTRICITY":0.0001843,"INCLINATION":42.9993,"RA_OF_ASC_NODE":228.895,"ARG_OF_PERICENTER":282.3533,"MEAN_ANOMALY":77.7112,"EPHEMERIS_TYPE":0,"CLASSIFICATION_TYPE":"U","NORAD_CAT_ID":64020,"ELEMENT_SET_NO":999,"REV_AT_EPOCH":3105,"BSTAR":0.0015933,"MEAN_MOTION_DOT":0.00043877,"MEAN_MOTION_DDOT":0},{"OBJECT_NAME":"STARLINK-34062","OBJECT_ID":"2025-101AD","EPOCH":"2025-11-25T01:05:17.210976","MEAN_MOTION":15.27595278,"ECCENTRICITY":0.0001305,"INCLINATION":43.0019,"RA_OF_ASC_NODE":228.7282,"ARG_OF_PERICENTER":263.8124,"MEAN_ANOMALY":96.2578,"EPHEMERIS_TYPE":0,"CLASSIFICATION_TYPE":"U","NORAD_CAT_ID":64021,"ELEMENT_SET_NO":999,"REV_AT_EPOCH":3105,"BSTAR":0.00093823,"MEAN_MOTION_DOT":0.00025658,"MEAN_MOTION_DDOT":0},{"OBJECT_NAME":"STARLINK-34051","OBJECT_ID":"2025-102A","EPOCH":"2025-11-24T13:15:42.410016","MEAN_MOTION":14.98338484,"ECCENTRICITY":0.00031556,"INCLINATION":70.0012,"RA_OF_ASC_NODE":19.5515,"ARG_OF_PERICENTER":269.1651,"MEAN_ANOMALY":90.9146,"EPHEMERIS_TYPE":0,"CLASSIFICATION_TYPE":"U","NORAD_CAT_ID":64022,"ELEMENT_SET_NO":999,"REV_AT_EPOCH":3020,"BSTAR":0.00067514856,"MEAN_MOTION_DOT":7.974e-5,"MEAN_MOTION_DDOT":0},{"OBJECT_NAME":"STARLINK-34184","OBJECT_ID":"2025-102B","EPOCH":"2025-11-24T13:39:30.079296","MEAN_MOTION":14.98341735,"ECCENTRICITY":0.00032458,"INCLINATION":70.0014,"RA_OF_ASC_NODE":19.6067,"ARG_OF_PERICENTER":271.6874,"MEAN_ANOMALY":88.3913,"EPHEMERIS_TYPE":0,"CLASSIFICATION_TYPE":"U","NORAD_CAT_ID":64023,"ELEMENT_SET_NO":999,"REV_AT_EPOCH":3021,"BSTAR":0.00042457763,"MEAN_MOTION_DOT":4.978e-5,"MEAN_MOTION_DDOT":0},{"OBJECT_NAME":"STARLINK-34087","OBJECT_ID":"2025-102C","EPOCH":"2025-11-24T20:52:05.067840","MEAN_MOTION":14.98342761,"ECCENTRICITY":0.0002919,"INCLINATION":70.002,"RA_OF_ASC_NODE":18.6473,"ARG_OF_PERICENTER":271.1719,"MEAN_ANOMALY":88.9105,"EPHEMERIS_TYPE":0,"CLASSIFICATION_TYPE":"U","NORAD_CAT_ID":64024,"ELEMENT_SET_NO":999,"REV_AT_EPOCH":3014,"BSTAR":0.00050067,"MEAN_MOTION_DOT":5.888e-5,"MEAN_MOTION_DDOT":0},{"OBJECT_NAME":"STARLINK-34088","OBJECT_ID":"2025-102D","EPOCH":"2025-11-25T02:40:50.206080","MEAN_MOTION":14.98336118,"ECCENTRICITY":0.0002881,"INCLINATION":70.002,"RA_OF_ASC_NODE":18.2846,"ARG_OF_PERICENTER":265.4692,"MEAN_ANOMALY":94.6138,"EPHEMERIS_TYPE":0,"CLASSIFICATION_TYPE":"U","NORAD_CAT_ID":64025,"ELEMENT_SET_NO":999,"REV_AT_EPOCH":3029,"BSTAR":0.00026831,"MEAN_MOTION_DOT":3.11e-5,"MEAN_MOTION_DDOT":0},{"OBJECT_NAME":"STARLINK-33992","OBJECT_ID":"2025-102E","EPOCH":"2025-11-24T20:28:04.761696","MEAN_MOTION":14.98339173,"ECCENTRICITY":0.0002962,"INCLINATION":70.0016,"RA_OF_ASC_NODE":18.9924,"ARG_OF_PERICENTER":268.2711,"MEAN_ANOMALY":91.8109,"EPHEMERIS_TYPE":0,"CLASSIFICATION_TYPE":"U","NORAD_CAT_ID":64026,"ELEMENT_SET_NO":999,"REV_AT_EPOCH":3033,"BSTAR":0.00025559,"MEAN_MOTION_DOT":2.959e-5,"MEAN_MOTION_DDOT":0},{"OBJECT_NAME":"STARLINK-33967","OBJECT_ID":"2025-102F","EPOCH":"2025-11-25T02:04:31.794240","MEAN_MOTION":14.9834143,"ECCENTRICITY":0.0003132,"INCLINATION":70.0014,"RA_OF_ASC_NODE":18.2004,"ARG_OF_PERICENTER":269.6025,"MEAN_ANOMALY":90.4775,"EPHEMERIS_TYPE":0,"CLASSIFICATION_TYPE":"U","NORAD_CAT_ID":64027,"ELEMENT_SET_NO":999,"REV_AT_EPOCH":3022,"BSTAR":0.00042271,"MEAN_MOTION_DOT":4.956e-5,"MEAN_MOTION_DDOT":0},{"OBJECT_NAME":"STARLINK-33953","OBJECT_ID":"2025-102G","EPOCH":"2025-11-25T02:58:35.400576","MEAN_MOTION":14.98342087,"ECCENTRICITY":0.000269,"INCLINATION":70.0019,"RA_OF_ASC_NODE":17.9281,"ARG_OF_PERICENTER":265.4879,"MEAN_ANOMALY":94.5973,"EPHEMERIS_TYPE":0,"CLASSIFICATION_TYPE":"U","NORAD_CAT_ID":64028,"ELEMENT_SET_NO":999,"REV_AT_EPOCH":3039,"BSTAR":0.00046666,"MEAN_MOTION_DOT":5.481e-5,"MEAN_MOTION_DDOT":0},{"OBJECT_NAME":"STARLINK-33790","OBJECT_ID":"2025-102H","EPOCH":"2025-11-24T13:33:43.693920","MEAN_MOTION":14.98339553,"ECCENTRICITY":0.00031067,"INCLINATION":70.0016,"RA_OF_ASC_NODE":19.587,"ARG_OF_PERICENTER":266.9238,"MEAN_ANOMALY":93.1565,"EPHEMERIS_TYPE":0,"CLASSIFICATION_TYPE":"U","NORAD_CAT_ID":64029,"ELEMENT_SET_NO":999,"REV_AT_EPOCH":3025,"BSTAR":0.00033276747,"MEAN_MOTION_DOT":3.881e-5,"MEAN_MOTION_DDOT":0},{"OBJECT_NAME":"STARLINK-34030","OBJECT_ID":"2025-102J","EPOCH":"2025-11-25T02:40:35.851584","MEAN_MOTION":14.98336736,"ECCENTRICITY":0.000298,"INCLINATION":70.0018,"RA_OF_ASC_NODE":18.2884,"ARG_OF_PERICENTER":270.7326,"MEAN_ANOMALY":89.3492,"EPHEMERIS_TYPE":0,"CLASSIFICATION_TYPE":"U","NORAD_CAT_ID":64030,"ELEMENT_SET_NO":999,"REV_AT_EPOCH":3029,"BSTAR":0.00014987,"MEAN_MOTION_DOT":1.696e-5,"MEAN_MOTION_DDOT":0}]
